[{"OBJECT_NAME":"STARLINK-2367","OBJECT_ID":"2021-021AZ","EPOCH":"2026-03-10T00:00:02.999808","MEAN_MOTION":15.26413588,"ECCENTRICITY":0.00010158,"INCLINATION":53.1415,"RA_OF_ASC_NODE":279.3039,"ARG_OF_PERICENTER":61.5725,"MEAN_ANOMALY":286.6174,"EPHEMERIS_TYPE":0,"CLASSIFICATION_TYPE":"U","NORAD_CAT_ID":47907,"ELEMENT_SET_NO":999,"REV_AT_EPOCH":579,"BSTAR":0.036483636,"MEAN_MOTION_DOT":0.01050812,"MEAN_MOTION_DDOT":0},{"OBJECT_NAME":"LEMUR-2-DEVERILL-M-T","OBJECT_ID":"2023-100F","EPOCH":"2026-03-09T12:28:46.594272","MEAN_MOTION":15.34744564,"ECCENTRICITY":0.00079755,"INCLINATION":99.4583,"RA_OF_ASC_NODE":78.9092,"ARG_OF_PERICENTER":29.3685,"MEAN_ANOMALY":330.7998,"EPHEMERIS_TYPE":0,"CLASSIFICATION_TYPE":"U","NORAD_CAT_ID":57391,"ELEMENT_SET_NO":999,"REV_AT_EPOCH":14593,"BSTAR":0.0008498245,"MEAN_MOTION_DOT":0.0002862,"MEAN_MOTION_DDOT":0}]
